2026-083B
1 68754U 26083B   26109.22027963  .00001931  00000+0  13544-3 0  9991
2 68754  98.2511 254.6212 0008745 254.5231 105.5029 15.06510197   340
2026-083D
1 68756U 26083D   26109.25451568  .00006991  00000+0  23237-3 0  9999
2 68756  96.9047 250.2871 0013428 264.5456  95.4255 15.31382569   344
2026-083E
1 68757U 26083E   26107.15977192  .00001477  00000+0  63261-4 0  9999
2 68757  98.2473 252.4151 0061702  80.1499 280.6695 15.23009713    35
2026-083F
1 68758U 26083F   26109.22033408  .00001372  00000+0  96231-4 0  9990
2 68758  96.9505 249.2905 0010152 250.1790 109.8345 15.06563594   323
2026-083G
1 68759U 26083G   26109.22027901  .00001419  00000+0  99314-4 0  9999
2 68759  96.9509 249.2932 0010335 250.2208 109.7907 15.06605387   315
DAQI-2
1 68760U 26084A   26109.13551653  .00000030  00000+0  15616-4 0  9999
2 68760  98.2883 183.5451 0004852 219.7145 140.3701 14.61978622   295
2026-083H
1 68762U 26083H   26109.22005805  .00001440  00000+0  10029-3 0  9991
2 68762  96.9503 249.2904 0011069 250.4819 109.5215 15.06772874   324
2026-083J
1 68763U 26083J   26109.15359222  .00001353  00000+0  94288-4 0  9992
2 68763  96.9507 249.2332 0011257 250.6709 109.3303 15.06816576   316
2026-083K
1 68764U 26083K   26109.21992727  .00001427  00000+0  99150-4 0  9998
2 68764  96.9507 249.2925 0010604 246.4041 113.6075 15.06871941   324
2026-083C
1 68755U 26083C   26108.35291177  .22174759  36165-5  21653-2 0  9994
2 68755  98.2527 253.8385 0170194  68.7663 293.1699 16.05765192   223
