[{"OBJECT_NAME":"2026-083B","OBJECT_ID":"2026-083B","EPOCH":"2026-04-19T05:17:12.160032","MEAN_MOTION":15.06510197,"ECCENTRICITY":0.00087456,"INCLINATION":98.2511,"RA_OF_ASC_NODE":254.6212,"ARG_OF_PERICENTER":254.5231,"MEAN_ANOMALY":105.5029,"EPHEMERIS_TYPE":0,"CLASSIFICATION_TYPE":"U","NORAD_CAT_ID":68754,"ELEMENT_SET_NO":999,"REV_AT_EPOCH":34,"BSTAR":0.00013544219,"MEAN_MOTION_DOT":1.931e-5,"MEAN_MOTION_DDOT":0},{"OBJECT_NAME":"2026-083C","OBJECT_ID":"2026-083C","EPOCH":"2026-04-18T08:28:11.576928","MEAN_MOTION":16.05765192,"ECCENTRICITY":0.01701943,"INCLINATION":98.2527,"RA_OF_ASC_NODE":253.8385,"ARG_OF_PERICENTER":68.7663,"MEAN_ANOMALY":293.1699,"EPHEMERIS_TYPE":0,"CLASSIFICATION_TYPE":"U","NORAD_CAT_ID":68755,"ELEMENT_SET_NO":999,"REV_AT_EPOCH":22,"BSTAR":0.0021653052,"MEAN_MOTION_DOT":0.22174759,"MEAN_MOTION_DDOT":3.616473e-6},{"OBJECT_NAME":"2026-083D","OBJECT_ID":"2026-083D","EPOCH":"2026-04-19T06:06:30.154752","MEAN_MOTION":15.31382569,"ECCENTRICITY":0.00134282,"INCLINATION":96.9047,"RA_OF_ASC_NODE":250.2871,"ARG_OF_PERICENTER":264.5456,"MEAN_ANOMALY":95.4255,"EPHEMERIS_TYPE":0,"CLASSIFICATION_TYPE":"U","NORAD_CAT_ID":68756,"ELEMENT_SET_NO":999,"REV_AT_EPOCH":34,"BSTAR":0.00023236836,"MEAN_MOTION_DOT":6.991e-5,"MEAN_MOTION_DDOT":0},{"OBJECT_NAME":"2026-083E","OBJECT_ID":"2026-083E","EPOCH":"2026-04-17T03:50:04.293888","MEAN_MOTION":15.23009713,"ECCENTRICITY":0.00617028,"INCLINATION":98.2473,"RA_OF_ASC_NODE":252.4151,"ARG_OF_PERICENTER":80.1499,"MEAN_ANOMALY":280.6695,"EPHEMERIS_TYPE":0,"CLASSIFICATION_TYPE":"U","NORAD_CAT_ID":68757,"ELEMENT_SET_NO":999,"REV_AT_EPOCH":3,"BSTAR":6.3260824e-5,"MEAN_MOTION_DOT":1.477e-5,"MEAN_MOTION_DDOT":0},{"OBJECT_NAME":"2026-083F","OBJECT_ID":"2026-083F","EPOCH":"2026-04-19T05:17:16.864512","MEAN_MOTION":15.06563594,"ECCENTRICITY":0.00101524,"INCLINATION":96.9505,"RA_OF_ASC_NODE":249.2905,"ARG_OF_PERICENTER":250.179,"MEAN_ANOMALY":109.8345,"EPHEMERIS_TYPE":0,"CLASSIFICATION_TYPE":"U","NORAD_CAT_ID":68758,"ELEMENT_SET_NO":999,"REV_AT_EPOCH":32,"BSTAR":9.6230853e-5,"MEAN_MOTION_DOT":1.372e-5,"MEAN_MOTION_DDOT":0},{"OBJECT_NAME":"2026-083G","OBJECT_ID":"2026-083G","EPOCH":"2026-04-19T05:17:12.106464","MEAN_MOTION":15.06605387,"ECCENTRICITY":0.00103353,"INCLINATION":96.9509,"RA_OF_ASC_NODE":249.2932,"ARG_OF_PERICENTER":250.2208,"MEAN_ANOMALY":109.7907,"EPHEMERIS_TYPE":0,"CLASSIFICATION_TYPE":"U","NORAD_CAT_ID":68759,"ELEMENT_SET_NO":999,"REV_AT_EPOCH":31,"BSTAR":9.9313553e-5,"MEAN_MOTION_DOT":1.419e-5,"MEAN_MOTION_DDOT":0},{"OBJECT_NAME":"DAQI-2","OBJECT_ID":"2026-084A","EPOCH":"2026-04-19T03:15:08.628192","MEAN_MOTION":14.61978622,"ECCENTRICITY":0.00048516,"INCLINATION":98.2883,"RA_OF_ASC_NODE":183.5451,"ARG_OF_PERICENTER":219.7145,"MEAN_ANOMALY":140.3701,"EPHEMERIS_TYPE":0,"CLASSIFICATION_TYPE":"U","NORAD_CAT_ID":68760,"ELEMENT_SET_NO":999,"REV_AT_EPOCH":29,"BSTAR":1.5615889e-5,"MEAN_MOTION_DOT":3.0e-7,"MEAN_MOTION_DDOT":0},{"OBJECT_NAME":"2026-083H","OBJECT_ID":"2026-083H","EPOCH":"2026-04-19T05:16:53.015520","MEAN_MOTION":15.06772874,"ECCENTRICITY":0.00110697,"INCLINATION":96.9503,"RA_OF_ASC_NODE":249.2904,"ARG_OF_PERICENTER":250.4819,"MEAN_ANOMALY":109.5215,"EPHEMERIS_TYPE":0,"CLASSIFICATION_TYPE":"U","NORAD_CAT_ID":68762,"ELEMENT_SET_NO":999,"REV_AT_EPOCH":32,"BSTAR":0.00010029351,"MEAN_MOTION_DOT":1.44e-5,"MEAN_MOTION_DDOT":0},{"OBJECT_NAME":"2026-083J","OBJECT_ID":"2026-083J","EPOCH":"2026-04-19T03:41:10.367808","MEAN_MOTION":15.06816576,"ECCENTRICITY":0.00112578,"INCLINATION":96.9507,"RA_OF_ASC_NODE":249.2332,"ARG_OF_PERICENTER":250.6709,"MEAN_ANOMALY":109.3303,"EPHEMERIS_TYPE":0,"CLASSIFICATION_TYPE":"U","NORAD_CAT_ID":68763,"ELEMENT_SET_NO":999,"REV_AT_EPOCH":31,"BSTAR":9.4288288e-5,"MEAN_MOTION_DOT":1.353e-5,"MEAN_MOTION_DDOT":0},{"OBJECT_NAME":"2026-083K","OBJECT_ID":"2026-083K","EPOCH":"2026-04-19T05:16:41.716128","MEAN_MOTION":15.06871941,"ECCENTRICITY":0.00106041,"INCLINATION":96.9507,"RA_OF_ASC_NODE":249.2925,"ARG_OF_PERICENTER":246.4041,"MEAN_ANOMALY":113.6075,"EPHEMERIS_TYPE":0,"CLASSIFICATION_TYPE":"U","NORAD_CAT_ID":68764,"ELEMENT_SET_NO":999,"REV_AT_EPOCH":32,"BSTAR":9.9150092e-5,"MEAN_MOTION_DOT":1.427e-5,"MEAN_MOTION_DDOT":0}]
